CCSDS_OMM_VERS = 2.0
CREATION_DATE  = 
ORIGINATOR     = 

OBJECT_NAME    = ALOS (DAICHI)
OBJECT_ID      = 2006-002A
CENTER_NAME    = EARTH
REF_FRAME      = TEME
TIME_SYSTEM    = UTC
MEAN_ELEMENT_THEORY = SGP/SGP4

EPOCH          = 2025-12-17T17:37:14.152512
MEAN_MOTION    = 14.69501788
ECCENTRICITY   = .00013612
INCLINATION    = 98.1098
RA_OF_ASC_NODE = 303.1864
ARG_OF_PERICENTER = 113.5739
MEAN_ANOMALY   = 246.5610

EPHEMERIS_TYPE = 0
CLASSIFICATION_TYPE = U
NORAD_CAT_ID   = 28931
ELEMENT_SET_NO = 999
REV_AT_EPOCH   = 6144
BSTAR          = .19545051E-3
MEAN_MOTION_DOT = .111E-4
MEAN_MOTION_DDOT = 0

CCSDS_OMM_VERS = 2.0
CREATION_DATE  = 
ORIGINATOR     = 

OBJECT_NAME    = H-2A R/B
OBJECT_ID      = 2006-002B
CENTER_NAME    = EARTH
REF_FRAME      = TEME
TIME_SYSTEM    = UTC
MEAN_ELEMENT_THEORY = SGP/SGP4

EPOCH          = 2025-12-30T06:59:05.746272
MEAN_MOTION    = 15.14951117
ECCENTRICITY   = .00547448
INCLINATION    = 98.2316
RA_OF_ASC_NODE = 140.4781
ARG_OF_PERICENTER = 117.1699
MEAN_ANOMALY   = 243.5127

EPHEMERIS_TYPE = 0
CLASSIFICATION_TYPE = U
NORAD_CAT_ID   = 28932
ELEMENT_SET_NO = 999
REV_AT_EPOCH   = 8392
BSTAR          = .75888806E-3
MEAN_MOTION_DOT = .14632E-3
MEAN_MOTION_DDOT = 0

CCSDS_OMM_VERS = 2.0
CREATION_DATE  = 
ORIGINATOR     = 

OBJECT_NAME    = RESURS-DK 1
OBJECT_ID      = 2006-021A
CENTER_NAME    = EARTH
REF_FRAME      = TEME
TIME_SYSTEM    = UTC
MEAN_ELEMENT_THEORY = SGP/SGP4

EPOCH          = 2025-12-30T05:27:01.909152
MEAN_MOTION    = 15.12270545
ECCENTRICITY   = .0007024
INCLINATION    = 69.9345
RA_OF_ASC_NODE = 56.6411
ARG_OF_PERICENTER = 243.8208
MEAN_ANOMALY   = 116.2236

EPHEMERIS_TYPE = 0
CLASSIFICATION_TYPE = U
NORAD_CAT_ID   = 29228
ELEMENT_SET_NO = 999
REV_AT_EPOCH   = 7702
BSTAR          = .26854889E-3
MEAN_MOTION_DOT = .4553E-4
MEAN_MOTION_DDOT = 0

CCSDS_OMM_VERS = 2.0
CREATION_DATE  = 
ORIGINATOR     = 

OBJECT_NAME    = CZ-4B R/B
OBJECT_ID      = 2006-046C
CENTER_NAME    = EARTH
REF_FRAME      = TEME
TIME_SYSTEM    = UTC
MEAN_ELEMENT_THEORY = SGP/SGP4

EPOCH          = 2025-12-30T03:05:41.679168
MEAN_MOTION    = 15.16061346
ECCENTRICITY   = .003467
INCLINATION    = 97.5719
RA_OF_ASC_NODE = 44.2201
ARG_OF_PERICENTER = 146.5355
MEAN_ANOMALY   = 213.8078

EPHEMERIS_TYPE = 0
CLASSIFICATION_TYPE = U
NORAD_CAT_ID   = 29507
ELEMENT_SET_NO = 999
REV_AT_EPOCH   = 4950
BSTAR          = .44137938E-3
MEAN_MOTION_DOT = .8556E-4
MEAN_MOTION_DDOT = 0

CCSDS_OMM_VERS = 2.0
CREATION_DATE  = 
ORIGINATOR     = 

OBJECT_NAME    = CZ-2C R/B
OBJECT_ID      = 2007-010B
CENTER_NAME    = EARTH
REF_FRAME      = TEME
TIME_SYSTEM    = UTC
MEAN_ELEMENT_THEORY = SGP/SGP4

EPOCH          = 2025-12-30T06:16:22.145088
MEAN_MOTION    = 14.20217761
ECCENTRICITY   = .00598187
INCLINATION    = 98.3975
RA_OF_ASC_NODE = 116.0306
ARG_OF_PERICENTER = 135.4163
MEAN_ANOMALY   = 225.1849

EPHEMERIS_TYPE = 0
CLASSIFICATION_TYPE = U
NORAD_CAT_ID   = 31114
ELEMENT_SET_NO = 999
REV_AT_EPOCH   = 96986
BSTAR          = .1387816E-3
MEAN_MOTION_DOT = .261E-5
MEAN_MOTION_DDOT = 0

CCSDS_OMM_VERS = 2.0
CREATION_DATE  = 
ORIGINATOR     = 

OBJECT_NAME    = COSMO-SKYMED 1
OBJECT_ID      = 2007-023A
CENTER_NAME    = EARTH
REF_FRAME      = TEME
TIME_SYSTEM    = UTC
MEAN_ELEMENT_THEORY = SGP/SGP4

EPOCH          = 2025-12-30T05:56:20.448096
MEAN_MOTION    = 14.95906428
ECCENTRICITY   = .00010257
INCLINATION    = 97.8833
RA_OF_ASC_NODE = 189.7626
ARG_OF_PERICENTER = 82.6141
MEAN_ANOMALY   = 277.5196

EPHEMERIS_TYPE = 0
CLASSIFICATION_TYPE = U
NORAD_CAT_ID   = 31598
ELEMENT_SET_NO = 999
REV_AT_EPOCH   = 452
BSTAR          = .56421145E-3
MEAN_MOTION_DOT = .6257E-4
MEAN_MOTION_DDOT = 0

CCSDS_OMM_VERS = 2.0
CREATION_DATE  = 
ORIGINATOR     = 

OBJECT_NAME    = COSMOS 2428
OBJECT_ID      = 2007-029A
CENTER_NAME    = EARTH
REF_FRAME      = TEME
TIME_SYSTEM    = UTC
MEAN_ELEMENT_THEORY = SGP/SGP4

EPOCH          = 2025-12-30T05:24:33.958656
MEAN_MOTION    = 14.12898362
ECCENTRICITY   = .00046758
INCLINATION    = 70.9373
RA_OF_ASC_NODE = 349.1661
ARG_OF_PERICENTER = 359.3494
MEAN_ANOMALY   = 0.7620

EPHEMERIS_TYPE = 0
CLASSIFICATION_TYPE = U
NORAD_CAT_ID   = 31792
ELEMENT_SET_NO = 999
REV_AT_EPOCH   = 95428
BSTAR          = .20612016E-3
MEAN_MOTION_DOT = .336E-5
MEAN_MOTION_DDOT = 0

CCSDS_OMM_VERS = 2.0
CREATION_DATE  = 
ORIGINATOR     = 

OBJECT_NAME    = SL-16 R/B
OBJECT_ID      = 2007-029B
CENTER_NAME    = EARTH
REF_FRAME      = TEME
TIME_SYSTEM    = UTC
MEAN_ELEMENT_THEORY = SGP/SGP4

EPOCH          = 2025-12-30T06:50:36.719808
MEAN_MOTION    = 14.14822658
ECCENTRICITY   = .0001961
INCLINATION    = 70.9771
RA_OF_ASC_NODE = 318.2753
ARG_OF_PERICENTER = 269.3019
MEAN_ANOMALY   = 194.5766

EPHEMERIS_TYPE = 0
CLASSIFICATION_TYPE = U
NORAD_CAT_ID   = 31793
ELEMENT_SET_NO = 999
REV_AT_EPOCH   = 95555
BSTAR          = .16949728E-3
MEAN_MOTION_DOT = .279E-5
MEAN_MOTION_DDOT = 0

CCSDS_OMM_VERS = 2.0
CREATION_DATE  = 
ORIGINATOR     = 

OBJECT_NAME    = KORONAS-FOTON
OBJECT_ID      = 2009-003A
CENTER_NAME    = EARTH
REF_FRAME      = TEME
TIME_SYSTEM    = UTC
MEAN_ELEMENT_THEORY = SGP/SGP4

EPOCH          = 2025-12-30T05:13:38.695008
MEAN_MOTION    = 15.41542437
ECCENTRICITY   = .0013004
INCLINATION    = 82.4307
RA_OF_ASC_NODE = 347.9896
ARG_OF_PERICENTER = 54.4589
MEAN_ANOMALY   = 305.7868

EPHEMERIS_TYPE = 0
CLASSIFICATION_TYPE = U
NORAD_CAT_ID   = 33504
ELEMENT_SET_NO = 999
REV_AT_EPOCH   = 93503
BSTAR          = .3145522E-3
MEAN_MOTION_DOT = .13282E-3
MEAN_MOTION_DDOT = 0

CCSDS_OMM_VERS = 2.0
CREATION_DATE  = 
ORIGINATOR     = 

OBJECT_NAME    = CZ-2C R/B
OBJECT_ID      = 2011-030B
CENTER_NAME    = EARTH
REF_FRAME      = TEME
TIME_SYSTEM    = UTC
MEAN_ELEMENT_THEORY = SGP/SGP4

EPOCH          = 2025-12-30T03:38:07.704384
MEAN_MOTION    = 14.80959844
ECCENTRICITY   = .00517845
INCLINATION    = 97.8435
RA_OF_ASC_NODE = 317.8753
ARG_OF_PERICENTER = 215.4467
MEAN_ANOMALY   = 154.9179

EPHEMERIS_TYPE = 0
CLASSIFICATION_TYPE = U
NORAD_CAT_ID   = 37731
ELEMENT_SET_NO = 999
REV_AT_EPOCH   = 77980
BSTAR          = .27398933E-3
MEAN_MOTION_DOT = .2115E-4
MEAN_MOTION_DDOT = 0

CCSDS_OMM_VERS = 2.0
CREATION_DATE  = 
ORIGINATOR     = 

OBJECT_NAME    = H-2A R/B
OBJECT_ID      = 2012-025E
CENTER_NAME    = EARTH
REF_FRAME      = TEME
TIME_SYSTEM    = UTC
MEAN_ELEMENT_THEORY = SGP/SGP4

EPOCH          = 2025-12-29T21:55:32.613024
MEAN_MOTION    = 14.94566732
ECCENTRICITY   = .00448756
INCLINATION    = 98.4621
RA_OF_ASC_NODE = 320.4714
ARG_OF_PERICENTER = 178.8732
MEAN_ANOMALY   = 181.2595

EPHEMERIS_TYPE = 0
CLASSIFICATION_TYPE = U
NORAD_CAT_ID   = 38341
ELEMENT_SET_NO = 999
REV_AT_EPOCH   = 73779
BSTAR          = .4793724E-3
MEAN_MOTION_DOT = .5221E-4
MEAN_MOTION_DDOT = 0

CCSDS_OMM_VERS = 2.0
CREATION_DATE  = 
ORIGINATOR     = 

OBJECT_NAME    = SHIJIAN-16 (SJ-16)
OBJECT_ID      = 2013-057A
CENTER_NAME    = EARTH
REF_FRAME      = TEME
TIME_SYSTEM    = UTC
MEAN_ELEMENT_THEORY = SGP/SGP4

EPOCH          = 2025-12-30T07:18:31.119840
MEAN_MOTION    = 14.92054651
ECCENTRICITY   = .00180229
INCLINATION    = 74.9736
RA_OF_ASC_NODE = 316.4179
ARG_OF_PERICENTER = 279.0067
MEAN_ANOMALY   = 80.9081

EPHEMERIS_TYPE = 0
CLASSIFICATION_TYPE = U
NORAD_CAT_ID   = 39358
ELEMENT_SET_NO = 999
REV_AT_EPOCH   = 66115
BSTAR          = .37187038E-3
MEAN_MOTION_DOT = .3759E-4
MEAN_MOTION_DDOT = 0

