ALOS (DAICHI)           
1 28931U 06002A   25351.73419158  .00001110  00000+0  19545-3 0  9994
2 28931  98.1098 303.1864 0001361 113.5739 246.5610 14.69501788 61443
H-2A R/B                
1 28932U 06002B   25364.29103873  .00014632  00000+0  75889-3 0  9990
2 28932  98.2316 140.4781 0054744 117.1699 243.5127 15.14951117 83929
RESURS-DK 1             
1 29228U 06021A   25364.22710543  .00004553  00000+0  26855-3 0  9991
2 29228  69.9345  56.6411 0007024 243.8208 116.2236 15.12270545 77023
CZ-4B R/B               
1 29507U 06046C   25364.12895462  .00008556  00000+0  44138-3 0  9992
2 29507  97.5719  44.2201 0034670 146.5355 213.8078 15.16061346 49505
CZ-2C R/B               
1 31114U 07010B   25364.26136742  .00000261  00000+0  13878-3 0  9997
2 31114  98.3975 116.0306 0059818 135.4163 225.1849 14.20217761969864
COSMO-SKYMED 1          
1 31598U 07023A   25364.24745889  .00006257  00000+0  56421-3 0  9995
2 31598  97.8833 189.7626 0001025  82.6141 277.5196 14.95906428  4521
COSMOS 2428             
1 31792U 07029A   25364.22539304  .00000336  00000+0  20612-3 0  9993
2 31792  70.9373 349.1661 0004675 359.3494   0.7620 14.12898362954289
SL-16 R/B               
1 31793U 07029B   25364.28514722  .00000279  00000+0  16950-3 0  9993
2 31793  70.9771 318.2753 0001961 269.3019 194.5766 14.14822658955550
KORONAS-FOTON           
1 33504U 09003A   25364.21780897  .00013282  00000+0  31455-3 0  9995
2 33504  82.4307 347.9896 0013004  54.4589 305.7868 15.41542437935033
CZ-2C R/B               
1 37731U 11030B   25364.15147806  .00002115  00000+0  27399-3 0  9999
2 37731  97.8435 317.8753 0051784 215.4467 154.9179 14.80959844779806
H-2A R/B                
1 38341U 12025E   25363.91357191  .00005221  00000+0  47937-3 0  9996
2 38341  98.4621 320.4714 0044875 178.8732 181.2595 14.94566732737797
SHIJIAN-16 (SJ-16)      
1 39358U 13057A   25364.30452685  .00003759  00000+0  37187-3 0  9999
2 39358  74.9736 316.4179 0018022 279.0067  80.9081 14.92054651661153
